ADRAS-J                 
1 58992U 24034A   24247.78138405  .00009018  00000+0  81308-3 0  9991
2 58992  98.2198 224.4526 0044230 147.9938 212.3981 14.95047809 29601
